AFOTEC-1 (FALCON ODE)   
1 44225U 19026A   20205.24846982  .00000542  00000-0  32088-4 0  9993
2 44225  40.0182 151.0082 0007367 298.3360  61.6697 15.20857631 67742
SPARC-1                 
1 44226U 19026B   20206.20186163  .00000709  00000-0  38005-4 0  9999
2 44226  40.0182 140.5201 0011528 307.6728  52.3027 15.22293361 67947
ELECTRON KICK STAGE R/B 
1 44227U 19026C   20205.94845001  .00000618  00000-0  34447-4 0  9998
2 44227  40.0236 143.2112 0009896 308.6064  51.3850 15.21944209 67898
HARBINGER (ICEYE-X3)    
1 44229U 19026E   20205.83247256  .00000426  00000-0  26791-4 0  9996
2 44229  40.0182 146.5909 0008278 297.1755  62.8201 15.21084203 67843
